#dP2021  7  5  6  0  0.00000000      96 __u+U ITR00 EXT  IAC
## 2165 108000.00000000   900.00000000 59400 0.2500000000000
+  117   C06C07C08C09C10C11C12C13C14C16C19C20C21C22C23C24C25
+        C26C27C28C29C30C32C33C34C35C36C37C38C39C40C41C42C43
+        C44C45C46E01E02E03E04E05E07E08E09E11E12E13E14E15E18
+        E19E21E24E25E26E27E30E31E33E36G01G02G03G04G05G06G07
+        G08G09G10G11G12G13G14G15G16G17G18G19G20G21G22G23G24
+        G25G26G27G28G29G30G31G32J01J02J03R01R02R03R04R05R07
+        R08R09R11R12R13R14R15R16R17R18R19R20R21R22R24  0  0
++        10 10 12 10 10  8  8 10  8  8  8  8  8  7  8  9  9
++         8  9  8  8  8  9 10  8  9  7  7  9 11 11  9  9  9
++         9  7  8  8  8  8  7  7  7  8  8  9  8  8  8  8  8
++         8  7  8  8  8  8  7  8  8  7  8  7  7  8  7  7  7
++         7  7  7 11  7  9  8  8  7  7  8  7  7  7  8  7  8
++         8  7  7  8  6  8  7  7  9  8  9  8  8  8  7  9  8
++         8 10  7  8  8  8  8  9  9  8  9  8  9  9  8  0  0
%c M  cc GPS ccc cccc cccc cccc cccc ccccc ccccc ccccc ccccc
%c cc cc ccc ccc cccc cccc cccc cccc ccccc ccccc ccccc ccccc
%f  0.0000000  0.000000000  0.00000000000  0.000000000000000
%f  0.0000000  0.000000000  0.00000000000  0.000000000000000
%i    0    0    0    0      0      0      0      0         0
%i    0    0    0    0      0      0      0      0         0
/* IAC                                ULTRA-RAPID PREDICTION
/* S/V CLOCKS ARE ALIGNED TO GNSS TIME                      
/* G:C1WC2W R:C1PC2P E:C1XC5X C:C2IC6I J:C1CC2S             
/* PCV:IGS14_2148 OL/AL:FES2004  NONE     YN ORB:CoN CLK:CoN
*  2021 07 05 16 30  0.00000000
PC06 -16402.462692  21548.313758  32694.941342    586.995126
PC07 -20293.009289  37122.845314  -3432.585485    154.008336
PC08  -3731.903331  31456.979998 -27502.490940   -900.776763
PC09    276.201705  25013.673076  34290.373138    396.700388
PC10  -9984.425365  38398.080837 -14710.955345    -22.018302
PC11  -7907.426169  13600.919161 -22998.333342    440.022658
PC12 -23930.806866   3801.896219 -13836.629988    821.313785
PC13   4706.815997  37594.485091 -18145.189564    325.495919
PC14 -13815.112232  23101.675671   7508.494057    834.649937
PC16 -14041.486999  21732.004923  33386.855297   -935.129460
PC19   5612.287621 -22380.420274 -15652.485729    897.901091
PC20  18768.881605 -20624.933666    187.385838   -854.031137
PC21 -21396.667731   6417.275960 -16724.523250   -935.118220
PC22 -11261.747702 -11195.069076 -22942.749568   -948.513032
PC23  14490.293790  21464.580754 -10388.987714   -959.648588
PC24 -10314.756819  15989.152826  20406.935176   -924.704815
PC25   4187.550145  26795.534799   6533.984141   -890.473864
PC26 -17259.484455  -2426.963498  21795.579875    883.029287
PC27  27258.994896   2536.476394   5427.586678    559.480559
PC28  21295.123035  13482.289843 -11972.676401    -54.173471
PC29  -3479.311431 -16403.473918  22294.455898    415.430063
PC30  17351.079764 -10246.777836  19304.084172    473.052465
PC32  21338.838616  -6494.686187  16776.597605   -924.123193
PC33  -5547.746102  22474.714662  15607.365395   -940.474102
PC34 -16632.667252  10681.864101 -19703.161120   -634.894471
PC35 -21466.696926 -12917.752342  12247.743238   -201.240940
PC36  -3325.699614 -26838.954266  -6843.330374   -730.806109
PC37  17312.957807   3824.466978 -21523.506335   -867.552751
PC38  -3983.042324  33038.706672 -25790.326939    159.744190
PC39 -11587.436378  22774.177583  33530.149326     32.214273
PC40 -18066.627398  35840.733198 -13141.763131    177.640263
PC41  11060.366462  11508.953318  22939.852141   -955.446091
PC42 -19099.693176  20341.203847   -871.763046   -917.060336
PC43   2773.379175  16498.439394 -22348.950317   -807.658214
PC44 -27340.096797  -1675.247197  -5264.041388    274.231160
PC45 -14550.945167 -21348.118638  10578.268192    485.495229
PC46   9513.696363 -16981.925985 -19995.553020    192.818447
PE01  15518.571256   6466.078590 -24358.002597  -1143.760782
PE02 -15558.364934  -6320.119563  24378.379815    230.838566
PE03 -25936.646816  -1217.480870 -14223.621215   -449.404397
PE04  26649.904145 -12393.151868  -3488.780045   -806.968275
PE05  -9963.003835 -14354.208559 -23885.903522   -267.557095
PE07 -11631.610865  18980.416380  19526.938928   -558.077448
PE08 -26464.977990  12709.055869   3850.767297   5975.103246
PE09  11379.591837 -18917.683799 -19700.676158   5610.550817
PE11    341.844493 -18952.131309  22715.777616   5760.668076
PE12  18359.667493  -4206.065651  22831.404133   5126.037016
PE13   -671.060650  18692.509738 -22945.396561    418.631762
PE14  11016.505253  17905.692698 -23025.800164  -1489.879853
PE15 -18265.134124   4260.323283 -22900.120652    805.096351
PE18 -21488.421021  -8188.602229  12250.771871  -1632.544055
PE19  24728.158582   2883.550180  16021.226905    319.369544
PE21   6501.754450  24233.442344 -15705.238647   -674.545666
PE24   7374.332502 -28492.218022  -3248.561766   -991.726062
PE25  -6381.075715 -24361.812169  15561.900714   -539.059771
PE26  17753.567599  22051.399050  -8642.098253   1614.019526
PE27  -6682.829230  28736.031628   2395.327628    -69.131671
PE30 -16194.813931  15226.907986  19537.998660   2808.281228
PE31  15831.406088 -16323.623529 -18937.021662   -482.931252
PE33  25068.279594  12654.272116   9368.973538   -468.128103
PE36 -17274.081339 -22083.371436   9479.079975   -230.319758
PG01  20262.309352  11309.705705  12962.388374    637.408956
PG02 -12069.071513 -21948.098589   9391.056284   -617.449611
PG03  14857.426760   2769.728064  21741.122309   -211.670543
PG04  25570.013907   1566.409501   7142.175187   -201.694389
PG05  -9238.554108 -15703.680021 -19426.782499    -47.005118
PG06  -2203.146780 -20357.786561  16941.335670     35.881144
PG07  16380.767463  -2976.493675 -20436.573336    195.239734
PG08  20006.754124   7451.228803 -16004.250687    -27.681093
PG09  25221.863416  -7492.309573  -3787.425776   -354.252239
PG10 -11664.531948  23293.340800  -4247.180976   -156.035282
PG11 -10003.055774 -23229.589067   8095.354136      7.641656
PG12 -14139.899243  -4633.913971  21744.397346    -64.460027
PG13 -12208.877446 -13159.589980 -19756.014678    153.767446
PG14  12735.370364 -22933.732952  -4029.088662     54.444609
PG15 -20990.360952  -6056.158119 -15707.067183   -137.633402
PG16   3010.251644  20303.515210 -16843.311001   -352.264490
PG17  16411.304879 -13039.165682  16741.474115    469.129257
PG18 -14122.337485   6156.263964 -21656.406185    342.940760
PG19   7585.448826 -14377.825635  20690.256036     22.369900
PG20  -5271.935995 -22461.892963 -13389.762903    520.485747
PG21  21199.598907  15365.230855   6550.219064    129.402075
PG22  12473.859910  11884.516134  20444.596850   -571.159870
PG23 -15876.906989  15670.340123 -14394.670555     88.586416
PG24 -21383.622343 -13833.976224   7971.717548    162.325040
PG25 -16796.246627   8395.188508  18413.078668    168.173061
PG26  -2818.927351  25354.079753  -6922.794681    106.913356
PG27   9794.413567  12941.863364 -21274.357512   -158.166372
PG28   9687.854678 -24726.021075   2922.072741    543.034758
PG29 -26088.668541   4363.604187  -2774.778431   -375.345506
PG30   7121.284629 -15245.963817 -20433.710005   -447.250463
PG31   3164.629748  21305.648331  15137.084523   -126.950498
PG32 -13047.964892  14966.504254  17672.631395     15.588105
PJ01 -30219.242537  29419.065403   7293.562648   -409.308968
PJ02 -28365.670529  25842.055042  22460.640144     -0.605858
PJ03 -28226.065153  17695.667849 -21155.778299    -10.122175
PR01  14414.713563 -18045.717870 -10805.607172     81.894142
PR02  -3203.888933 -11005.110827 -22748.932941    484.927760
PR03 -17167.950809   1848.219091 -18708.331160     38.922540
PR04 -21213.085551  13508.792010  -4220.760577     94.419099
PR05 -13532.648323  17541.884983  12637.163382     74.795921
PR07  17592.888754  -2349.678674  18379.127998    -42.136976
PR08  21238.937620 -13500.380971   4279.699384    -59.818677
PR09   7188.366767  23194.227600  -7915.692798      1.383142
PR11   9094.761862  -9381.782728 -21890.452182    -18.669009
PR12   1601.802487 -23524.505790  -9720.684720    242.827368
PR13  -6818.767200 -23473.650360   7271.136583    -57.263579
PR14 -11384.844990  -9226.424361  20889.101185     66.114167
PR15  -9189.538205   9854.928049  21683.783143    102.858970
PR16   -593.814554  23896.843803   8707.882233    -17.427085
PR17 -23694.893689  -9393.875612  -1446.180387    438.501039
PR18 -19129.845199    -50.307421 -16839.004162     82.387516
PR19  -5616.968021   8797.188851 -23282.202911   -150.385464
PR20  14168.100568  14286.547415 -15704.155787    -52.002139
PR21  23733.162668   8900.384440   2718.930634   -221.640111
PR22  18564.782199   -375.123942  17515.418705   -121.146957
PR24 -14843.219074 -14318.912061  15030.412321     49.249756
EOF
